{
    "links": {
        "self": "http://www.neowsapp.com/rest/v1/neo/3605943?api_key=iIulBulltgU6a56xZRHN4H3l9WmuAYTsLGpBGhQ2"
    },
    "id": "3605943",
    "neo_reference_id": "3605943",
    "name": "(2012 MC7)",
    "designation": "2012 MC7",
    "nasa_jpl_url": "http://ssd.jpl.nasa.gov/sbdb.cgi?sstr=3605943",
    "absolute_magnitude_h": 20.2,
    "estimated_diameter": {
        "kilometers": {
            "estimated_diameter_min": 0.2424124811,
            "estimated_diameter_max": 0.5420507863
        },
        "meters": {
            "estimated_diameter_min": 242.4124811008,
            "estimated_diameter_max": 542.0507863358
        },
        "miles": {
            "estimated_diameter_min": 0.1506280858,
            "estimated_diameter_max": 0.3368146392
        },
        "feet": {
            "estimated_diameter_min": 795.3165644948,
            "estimated_diameter_max": 1778.3819018419
        }
    },
    "is_potentially_hazardous_asteroid": false,
    "close_approach_data": [
        {
            "close_approach_date": "2012-07-02",
            "close_approach_date_full": "2012-Jul-02 15:17",
            "epoch_date_close_approach": 1341242220000,
            "relative_velocity": {
                "kilometers_per_second": "20.0933822108",
                "kilometers_per_hour": "72336.1759589113",
                "miles_per_hour": "44946.886667358"
            },
            "miss_distance": {
                "astronomical": "0.2749451707",
                "lunar": "106.9536714023",
                "kilometers": "41131211.903506409",
                "miles": "25557749.9482260842"
            },
            "orbiting_body": "Earth"
        }
    ],
    "orbital_data": {
        "orbit_id": "22",
        "orbit_determination_date": "2017-04-06 08:49:27",
        "first_observation_date": "2012-06-22",
        "last_observation_date": "2012-07-21",
        "data_arc_in_days": 29,
        "observations_used": 137,
        "orbit_uncertainty": "7",
        "minimum_orbit_intersection": ".245773",
        "jupiter_tisserand_invariant": "3.125",
        "epoch_osculation": "2459000.5",
        "eccentricity": ".5655624080032113",
        "semi_major_axis": "2.428476181185625",
        "inclination": "29.32347038619502",
        "ascending_node_longitude": "111.520045555825",
        "orbital_period": "1382.290105048639",
        "perihelion_distance": "1.05502134437584",
        "perihelion_argument": "114.0396251762592",
        "aphelion_distance": "3.801931017995411",
        "perihelion_time": "2458830.946691861533",
        "mean_anomaly": "44.15801770331015",
        "mean_motion": ".2604373703357535",
        "equinox": "J2000",
        "orbit_class": {
            "orbit_class_type": "AMO",
            "orbit_class_description": "Near-Earth asteroid orbits similar to that of 1221 Amor",
            "orbit_class_range": "1.017 AU < q (perihelion) < 1.3 AU"
        }
    },
    "is_sentry_object": false
}